{
"type": "FeatureCollection",
"name": "estaciones_metro_2",
"crs": { "type": "name", "properties": { "name": "urn:ogc:def:crs:OGC:1.3:CRS84" } },
"features": [
{ "type": "Feature", "properties": { "OBJECTID": 1, "NUMERO": "01", "NOMBRE": "ESTACIÓN 1", "TIPO": "No Definida", "SHAPE_Length": 0.0033959534763895642, "SHAPE_Area": 3.6484947368518902e-07 }, "geometry": { "type": "MultiPolygon", "coordinates": [ [ [ [ -74.063854499999934, 4.661262770000064 ], [ -74.06384793899997, 4.661268964000044 ], [ -74.063764279999987, 4.661347941000031 ], [ -74.063762639999936, 4.661349490000021 ], [ -74.063760998999953, 4.661351038000021 ], [ -74.06367733999997, 4.661430015000064 ], [ -74.063670778999949, 4.661436209000044 ], [ -74.062683024999956, 4.660382837000043 ], [ -74.062689586999966, 4.660376643000063 ], [ -74.06277324499996, 4.660297667000066 ], [ -74.062773001999972, 4.660297357000047 ], [ -74.062772816999939, 4.660297010000022 ], [ -74.062772693999989, 4.660296636000055 ], [ -74.062772636999966, 4.66029624600003 ], [ -74.062772648999953, 4.660295853000036 ], [ -74.06277272899996, 4.660295467000026 ], [ -74.062772873999961, 4.660295101000031 ], [ -74.062773080999989, 4.66029476600005 ], [ -74.062773341999957, 4.660294472000032 ], [ -74.062773650999986, 4.660294228000055 ], [ -74.062773996999965, 4.660294042000032 ], [ -74.062774368999953, 4.660293918000036 ], [ -74.062774757999989, 4.66029386200006 ], [ -74.062775149999936, 4.660293874000047 ], [ -74.062775534999957, 4.660293954000053 ], [ -74.062775898999973, 4.660294100000044 ], [ -74.062776232999965, 4.660294307000072 ], [ -74.062776525999936, 4.66029456900003 ], [ -74.062860184999977, 4.660215593000032 ], [ -74.062866746999987, 4.660209399000053 ], [ -74.063854499999934, 4.661262770000064 ] ] ] ] } },
{ "type": "Feature", "properties": { "OBJECTID": 2, "NUMERO": "02", "NOMBRE": "ESTACIÓN 2", "TIPO": "No Definida", "SHAPE_Length": 0.003394737577836677, "SHAPE_Area": 3.6485351233889441e-07 }, "geometry": { "type": "MultiPolygon", "coordinates": [ [ [ [ -74.075223666999989, 4.668452057000025 ], [ -74.075218143999962, 4.66845919800005 ], [ -74.075147719999961, 4.668550250000067 ], [ -74.075146338999957, 4.668552035000062 ], [ -74.075144957999953, 4.668553821000046 ], [ -74.075074533999953, 4.668644872000073 ], [ -74.075069009999936, 4.668652014000031 ], [ -74.073930221999944, 4.667765293000059 ], [ -74.073935745999961, 4.667758152000033 ], [ -74.074006169999961, 4.667667100000074 ], [ -74.074005881999938, 4.667666833000055 ], [ -74.074005644999943, 4.667666519000022 ], [ -74.074005464999971, 4.667666168000039 ], [ -74.074005348999947, 4.667665792000037 ], [ -74.074005299999953, 4.667665401000022 ], [ -74.07400531899998, 4.667665008000029 ], [ -74.074005405999969, 4.667664624000054 ], [ -74.074005558999943, 4.667664261000027 ], [ -74.074005770999975, 4.66766393000006 ], [ -74.074006037999936, 4.667663641000047 ], [ -74.07400635099998, 4.667663402000073 ], [ -74.074006699999984, 4.667663222000044 ], [ -74.07400707499994, 4.66766310600002 ], [ -74.074007464999966, 4.667663057000027 ], [ -74.07400785699997, 4.667663076000053 ], [ -74.074008239999955, 4.667663164000032 ], [ -74.074008601999935, 4.667663316000073 ], [ -74.07400893199997, 4.667663530000027 ], [ -74.07407935599997, 4.667572478000068 ], [ -74.07408487899994, 4.667565337000042 ], [ -74.075223666999989, 4.668452057000025 ] ] ] ] } },
{ "type": "Feature", "properties": { "OBJECTID": 3, "NUMERO": "03", "NOMBRE": "ESTACIÓN 3", "TIPO": "No Definida", "SHAPE_Length": 0.0033953956314342962, "SHAPE_Area": 3.6485939629503468e-07 }, "geometry": { "type": "MultiPolygon", "coordinates": [ [ [ [ -74.08688484399994, 4.679229260000056 ], [ -74.085820403999946, 4.678253957000038 ], [ -74.08582647999998, 4.678247282000029 ], [ -74.08590393999998, 4.678162176000058 ], [ -74.08590367499994, 4.678161886000055 ], [ -74.085903462999966, 4.678161554000042 ], [ -74.085903311999971, 4.678161191000072 ], [ -74.08590322699996, 4.678160806000051 ], [ -74.08590320899998, 4.678160413000057 ], [ -74.085903258999963, 4.678160022000043 ], [ -74.085903376999966, 4.67815964600004 ], [ -74.085903557999984, 4.678159297000036 ], [ -74.085903795999968, 4.678158984000049 ], [ -74.085904084999981, 4.678158717000031 ], [ -74.085904415999948, 4.678158505000056 ], [ -74.085904777999986, 4.678158353000072 ], [ -74.085905160999971, 4.678158268000061 ], [ -74.085905553999964, 4.678158250000024 ], [ -74.085905942999943, 4.678158300000064 ], [ -74.085906317999957, 4.678158418000066 ], [ -74.085906665999971, 4.678158600000074 ], [ -74.085906977999969, 4.678158839000048 ], [ -74.085984438999958, 4.678073733000076 ], [ -74.085990513999946, 4.678067058000067 ], [ -74.087054953999939, 4.679042361000029 ], [ -74.087048877999962, 4.679049035000048 ], [ -74.087011572999984, 4.679090023000072 ], [ -74.08688484399994, 4.679229260000056 ] ] ] ] } },
{ "type": "Feature", "properties": { "OBJECTID": 4, "NUMERO": "04", "NOMBRE": "ESTACIÓN 4", "TIPO": "No Definida", "SHAPE_Length": 0.0034063308085832251, "SHAPE_Area": 3.7194907975083953e-07 }, "geometry": { "type": "MultiPolygon", "coordinates": [ [ [ [ -74.095465539999964, 4.687155657000062 ], [ -74.095465522999973, 4.687155263000022 ], [ -74.095465575999981, 4.687154873000054 ], [ -74.095465694999973, 4.687154498000041 ], [ -74.095465876999981, 4.687154149000037 ], [ -74.095466116999944, 4.687153837000039 ], [ -74.095467772999939, 4.687155368000049 ], [ -74.095469299999934, 4.687153706000061 ], [ -74.09554714099994, 4.687068950000025 ], [ -74.095553246999941, 4.687062303000062 ], [ -74.096613326999943, 4.688042388000042 ], [ -74.096607220999942, 4.688049036000052 ], [ -74.096578315999977, 4.688080509000031 ], [ -74.096435611999937, 4.688235112000029 ], [ -74.095381636999946, 4.687248378000049 ], [ -74.095466246999933, 4.687157030000037 ], [ -74.09546598299994, 4.687156739000045 ], [ -74.095465772999944, 4.687156406000042 ], [ -74.095465622999939, 4.687156042000026 ], [ -74.095465539999964, 4.687155657000062 ] ] ] ] } },
{ "type": "Feature", "properties": { "OBJECTID": 5, "NUMERO": "05", "NOMBRE": "ESTACIÓN 5", "TIPO": "No Definida", "SHAPE_Length": 0.0033957756929976391, "SHAPE_Area": 3.6486709022228764e-07 }, "geometry": { "type": "MultiPolygon", "coordinates": [ [ [ [ -74.102654000999962, 4.693669181000075 ], [ -74.102647641999965, 4.693675585000051 ], [ -74.102566569999965, 4.693757236000067 ], [ -74.102564979999954, 4.693758837000075 ], [ -74.102563389999943, 4.693760438000027 ], [ -74.102482317999943, 4.693842089000043 ], [ -74.102475958999946, 4.693848493000075 ], [ -74.101454708999938, 4.692827738000062 ], [ -74.101461067999935, 4.69282133400003 ], [ -74.101542139999935, 4.69273968300007 ], [ -74.101541886999939, 4.69273938200007 ], [ -74.101541689999976, 4.692739041000038 ], [ -74.101541554999983, 4.692738671000029 ], [ -74.101541485999974, 4.69273828300004 ], [ -74.101541485999974, 4.692737890000046 ], [ -74.101541552999947, 4.692737501000067 ], [ -74.101541686999951, 4.692737131000058 ], [ -74.101541881999935, 4.692736790000026 ], [ -74.101542133999942, 4.692736487000047 ], [ -74.101542433999953, 4.692736233000062 ], [ -74.101542773999938, 4.692736036000042 ], [ -74.101543142999958, 4.692735900000059 ], [ -74.101543528999969, 4.69273583100005 ], [ -74.101543921999962, 4.69273583100005 ], [ -74.101544308999962, 4.692735898000024 ], [ -74.101544677999982, 4.692736032000028 ], [ -74.101545017999968, 4.692736229000047 ], [ -74.101545319999957, 4.692736481000054 ], [ -74.101626391999957, 4.692654830000038 ], [ -74.101632749999965, 4.692648426000062 ], [ -74.102654000999962, 4.693669181000075 ] ] ] ] } },
{ "type": "Feature", "properties": { "OBJECTID": 6, "NUMERO": "06", "NOMBRE": "ESTACIÓN 6", "TIPO": "No Definida", "SHAPE_Length": 0.0033966227766015883, "SHAPE_Area": 3.6487075790543354e-07 }, "geometry": { "type": "MultiPolygon", "coordinates": [ [ [ [ -74.101639205999959, 4.701219335000076 ], [ -74.101646203999962, 4.701225029000057 ], [ -74.101735424999958, 4.701297624000063 ], [ -74.101737174999982, 4.70129904700002 ], [ -74.10173892399996, 4.701300471000025 ], [ -74.101828145999946, 4.701373066000031 ], [ -74.101835143999949, 4.701378760000068 ], [ -74.100927149999961, 4.702502108000033 ], [ -74.100920151999958, 4.702496415000041 ], [ -74.100830929999972, 4.702423820000035 ], [ -74.10083065699996, 4.702424103000055 ], [ -74.100830339999959, 4.702424334000057 ], [ -74.100829986999941, 4.702424507000046 ], [ -74.100829608999959, 4.702424615000041 ], [ -74.100829218999934, 4.702424656000062 ], [ -74.100828826999987, 4.702424628000074 ], [ -74.10082844599998, 4.702424532000066 ], [ -74.100828086999968, 4.702424372000053 ], [ -74.100827761999938, 4.702424151000059 ], [ -74.100827479999964, 4.702423878000047 ], [ -74.100827248999963, 4.702423559000067 ], [ -74.100827076999963, 4.702423205000059 ], [ -74.100826968999968, 4.702422826000031 ], [ -74.100826928999936, 4.702422434000027 ], [ -74.100826955999935, 4.702422041000034 ], [ -74.100827051999943, 4.702421659000038 ], [ -74.100827211999956, 4.702421299000036 ], [ -74.100827430999971, 4.702420973000073 ], [ -74.100738209999975, 4.702348378000067 ], [ -74.100731211999971, 4.70234268400003 ], [ -74.101636595999935, 4.701222565000023 ], [ -74.101639205999959, 4.701219335000076 ] ] ] ] } },
{ "type": "Feature", "properties": { "OBJECTID": 7, "NUMERO": "07", "NOMBRE": "ESTACIÓN 7", "TIPO": "No Definida", "SHAPE_Length": 0.0033978089739543091, "SHAPE_Area": 3.64883081052675e-07 }, "geometry": { "type": "MultiPolygon", "coordinates": [ [ [ [ -74.093655643999966, 4.710514225000054 ], [ -74.093649766999988, 4.710507373000041 ], [ -74.09357483499997, 4.710420015000068 ], [ -74.093574516999979, 4.710420245000023 ], [ -74.093574162999971, 4.710420416000034 ], [ -74.093573784999933, 4.710420522000049 ], [ -74.093573393999975, 4.710420562000024 ], [ -74.09357300299996, 4.710420532000057 ], [ -74.093572621999954, 4.71042043500006 ], [ -74.093572263999988, 4.710420273000068 ], [ -74.093571939999947, 4.710420051000028 ], [ -74.093571658999963, 4.710419776000037 ], [ -74.09357142999994, 4.710419456000068 ], [ -74.093571258999987, 4.71041910100007 ], [ -74.093571152999971, 4.710418722000043 ], [ -74.093571113999985, 4.710418330000039 ], [ -74.093571142999963, 4.710417937000045 ], [ -74.09357123999996, 4.710417556000039 ], [ -74.093571401999952, 4.710417196000037 ], [ -74.093571622999946, 4.710416871000064 ], [ -74.093571896999947, 4.710416589000033 ], [ -74.093496964999986, 4.71032923100006 ], [ -74.093491087999951, 4.710322379000047 ], [ -74.09458374999997, 4.709378963000063 ], [ -74.094589626999948, 4.709385814000029 ], [ -74.094664558999966, 4.70947317200006 ], [ -74.094664877999946, 4.709472943000037 ], [ -74.094665230999965, 4.709472772000026 ], [ -74.094665608999946, 4.709472665000021 ], [ -74.094666, 4.709472626000036 ], [ -74.094666391999965, 4.70947265500007 ], [ -74.094666771999982, 4.709472752000067 ], [ -74.094667129999948, 4.70947291400006 ], [ -74.094667453999989, 4.709473136000042 ], [ -74.094667734999973, 4.709473411000033 ], [ -74.094667964999985, 4.70947373100006 ], [ -74.094668134999949, 4.709474086000057 ], [ -74.094668240999965, 4.709474465000028 ], [ -74.094668279999951, 4.709474857000032 ], [ -74.094668250999973, 4.709475250000025 ], [ -74.094668153999976, 4.709475632000022 ], [ -74.094667992999973, 4.709475991000033 ], [ -74.09466777199998, 4.709476316000064 ], [ -74.094667496999989, 4.709476598000037 ], [ -74.09474242899995, 4.709563957000057 ], [ -74.094748305999985, 4.709570808000024 ], [ -74.093655643999966, 4.710514225000054 ] ] ] ] } },
{ "type": "Feature", "properties": { "OBJECTID": 8, "NUMERO": "08", "NOMBRE": "ESTACIÓN 8", "TIPO": "No Definida", "SHAPE_Length": 0.0033977273424328565, "SHAPE_Area": 3.6488906833277673e-07 }, "geometry": { "type": "MultiPolygon", "coordinates": [ [ [ [ -74.096676164999963, 4.722072752000031 ], [ -74.09556990599998, 4.721145402000047 ], [ -74.095575682999936, 4.721138465000024 ], [ -74.095649338999976, 4.721050021000053 ], [ -74.095649060999961, 4.721049743000037 ], [ -74.095648834999963, 4.721049421000032 ], [ -74.095648668999956, 4.721049064000056 ], [ -74.095648565999966, 4.721048684000039 ], [ -74.095648530999938, 4.721048292000035 ], [ -74.095648564999976, 4.721047899000041 ], [ -74.095648664999942, 4.721047518000034 ], [ -74.095648830999949, 4.721047161000058 ], [ -74.095649054999967, 4.721046838000063 ], [ -74.095649331999937, 4.721046559000058 ], [ -74.095649652999953, 4.721046332000071 ], [ -74.095650008999939, 4.721046165000075 ], [ -74.095650387999967, 4.721046062000028 ], [ -74.095650778999982, 4.721046027000057 ], [ -74.09565116999994, 4.721046061000038 ], [ -74.095651549999957, 4.72104616200005 ], [ -74.095651905999944, 4.721046327000067 ], [ -74.095652227999949, 4.721046553000065 ], [ -74.095725884999979, 4.720958109000037 ], [ -74.095731661999935, 4.720951172000071 ], [ -74.096837920999974, 4.721878522000054 ], [ -74.096832143999961, 4.721885459000021 ], [ -74.096758486999988, 4.721973903000048 ], [ -74.096758764999947, 4.721974181000064 ], [ -74.096758990999945, 4.721974503000069 ], [ -74.096759157999941, 4.721974860000046 ], [ -74.096759259999942, 4.721975240000063 ], [ -74.09675929499997, 4.721975632000067 ], [ -74.096759261999978, 4.72197602500006 ], [ -74.096759160999966, 4.721976406000067 ], [ -74.096758995999949, 4.721976763000043 ], [ -74.096758771999987, 4.721977086000038 ], [ -74.096758493999971, 4.721977365000043 ], [ -74.096758172999955, 4.72197759200003 ], [ -74.096757817999958, 4.721977759000026 ], [ -74.096757438999987, 4.721977862000074 ], [ -74.096757047999972, 4.721977897000045 ], [ -74.096756655999968, 4.721977864000053 ], [ -74.09675627699994, 4.721977762000051 ], [ -74.096755920999954, 4.721977597000034 ], [ -74.096755598999948, 4.721977371000037 ], [ -74.096681941999975, 4.722065815000065 ], [ -74.096676164999963, 4.722072752000031 ] ] ] ] } },
{ "type": "Feature", "properties": { "OBJECTID": 9, "NUMERO": "09", "NOMBRE": "ESTACIÓN 9", "TIPO": "No Definida", "SHAPE_Length": 0.0033814283416781811, "SHAPE_Area": 3.5185563247856325e-07 }, "geometry": { "type": "MultiPolygon", "coordinates": [ [ [ [ -74.104045912999936, 4.734047116000056 ], [ -74.103763345999937, 4.732669593000026 ], [ -74.103755324999952, 4.732630490000076 ], [ -74.103764149999961, 4.732628668000075 ], [ -74.103876669999977, 4.732605436000028 ], [ -74.103878876999943, 4.732604980000076 ], [ -74.103881082999976, 4.732604525000056 ], [ -74.103993602999935, 4.732581293000067 ], [ -74.104262675999962, 4.733893028000068 ], [ -74.104284191999966, 4.733997919000046 ], [ -74.10417167099996, 4.734021151000036 ], [ -74.104171716999986, 4.73402154200005 ], [ -74.104171693999945, 4.734021936000033 ], [ -74.104171602999941, 4.734022319000076 ], [ -74.104171446999942, 4.734022680000066 ], [ -74.104171230999953, 4.734023009000055 ], [ -74.104170961999955, 4.734023296000032 ], [ -74.104170645999943, 4.734023531000048 ], [ -74.10417029499996, 4.734023707000063 ], [ -74.104169918999958, 4.734023820000061 ], [ -74.104169528999989, 4.73402386600003 ], [ -74.104169136999985, 4.734023842000056 ], [ -74.104168754999989, 4.734023751000052 ], [ -74.104168394999988, 4.734023595000053 ], [ -74.104168066999989, 4.734023378000074 ], [ -74.104167780999944, 4.734023108000031 ], [ -74.104167546999975, 4.734022792000076 ], [ -74.10416737099996, 4.734022440000047 ], [ -74.104167258999951, 4.734022062000065 ], [ -74.104054737999945, 4.734045294000055 ], [ -74.104045912999936, 4.734047116000056 ] ] ] ] } },
{ "type": "Feature", "properties": { "OBJECTID": 10, "NUMERO": "10", "NOMBRE": "ESTACIÓN 10", "TIPO": "No Definida", "SHAPE_Length": 0.0033997741283272685, "SHAPE_Area": 3.6489447831463211e-07 }, "geometry": { "type": "MultiPolygon", "coordinates": [ [ [ [ -74.106210173999955, 4.746214427000041 ], [ -74.10620116399997, 4.746214341000041 ], [ -74.106086288999961, 4.746213247000071 ], [ -74.10608403599997, 4.746213226000066 ], [ -74.106081783999969, 4.746213204000071 ], [ -74.105966907999971, 4.746212111000034 ], [ -74.105957897999986, 4.746212025000034 ], [ -74.105971579999959, 4.744765777000055 ], [ -74.105980589999945, 4.744765863000055 ], [ -74.106095465999942, 4.744766956000035 ], [ -74.106095502999949, 4.744766564000031 ], [ -74.106095608999965, 4.74476618500006 ], [ -74.10609577799994, 4.744765829000073 ], [ -74.106096005999973, 4.744765509000047 ], [ -74.106096286999957, 4.744765233000066 ], [ -74.106096609999952, 4.744765010000037 ], [ -74.106096967999974, 4.744764847000056 ], [ -74.106097347999935, 4.744764749000069 ], [ -74.106097738999949, 4.744764718000056 ], [ -74.106098129999964, 4.744764756000052 ], [ -74.106098507999945, 4.744764862000068 ], [ -74.106098862999943, 4.744765032000032 ], [ -74.10609918199998, 4.744765261000055 ], [ -74.106099456999971, 4.744765542000039 ], [ -74.106099678999954, 4.744765867000069 ], [ -74.106099841999935, 4.744766225000035 ], [ -74.106099939999979, 4.744766607000031 ], [ -74.106099969999946, 4.744766999000035 ], [ -74.106214845999943, 4.744768093000062 ], [ -74.106223855999986, 4.744768179000062 ], [ -74.106210173999955, 4.746214427000041 ] ] ] ] } },
{ "type": "Feature", "properties": { "OBJECTID": 11, "NUMERO": "11", "NOMBRE": "ESTACIÓN 11", "TIPO": "No Definida", "SHAPE_Length": 0.0033947622802827544, "SHAPE_Area": 3.6490643133963853e-07 }, "geometry": { "type": "MultiPolygon", "coordinates": [ [ [ [ -74.114182938999988, 4.754614084000025 ], [ -74.11561371099998, 4.754791491000049 ], [ -74.115612604999967, 4.754800462000048 ], [ -74.115598513999942, 4.75491484500003 ], [ -74.115598897999973, 4.754914927000073 ], [ -74.115599261999989, 4.754915075000042 ], [ -74.115599594999935, 4.754915284000049 ], [ -74.115599885999984, 4.754915547000053 ], [ -74.115600127999983, 4.754915858000061 ], [ -74.11560031199997, 4.754916206000075 ], [ -74.11560043299994, 4.754916581000032 ], [ -74.115600486999938, 4.754916971000057 ], [ -74.115600472999972, 4.75491736500004 ], [ -74.115600390999987, 4.754917750000061 ], [ -74.115600369999981, 4.754917802000023 ], [ -74.11560024399995, 4.754918115000066 ], [ -74.115600035999989, 4.754918449000058 ], [ -74.115599772999985, 4.75491874100004 ], [ -74.115599462999967, 4.754918984000028 ], [ -74.115599115999942, 4.754919168000072 ], [ -74.115598742999964, 4.754919290000032 ], [ -74.115598353999985, 4.754919344000029 ], [ -74.115597960999935, 4.754919330000064 ], [ -74.115583869999966, 4.755033713000046 ], [ -74.115582764999942, 4.755042684000045 ], [ -74.11415199299995, 4.754865278000068 ], [ -74.114153097999974, 4.754856307000068 ], [ -74.114167189999989, 4.754741924000029 ], [ -74.114166805999957, 4.754741842000044 ], [ -74.114166441999942, 4.754741694000074 ], [ -74.114166108999939, 4.754741485000068 ], [ -74.114165816999957, 4.754741221000074 ], [ -74.114165575999948, 4.754740910000066 ], [ -74.114165391999961, 4.754740562000052 ], [ -74.114165270999933, 4.754740188000028 ], [ -74.114165223999976, 4.754739854000036 ], [ -74.114165215999947, 4.75473979800006 ], [ -74.114165229999969, 4.75473940400002 ], [ -74.114165311999955, 4.754739019000056 ], [ -74.114165459999981, 4.754738653000061 ], [ -74.114165667999941, 4.754738320000058 ], [ -74.114165930999945, 4.75473802700003 ], [ -74.114166240999964, 4.754737785000032 ], [ -74.114166586999943, 4.754737600000055 ], [ -74.114166960999967, 4.754737479000028 ], [ -74.114167349999946, 4.754737424000041 ], [ -74.11416774199995, 4.754737438000063 ], [ -74.114181833999965, 4.754623056000071 ], [ -74.114182938999988, 4.754614084000025 ] ] ] ] } }
]
}
