{
"type": "FeatureCollection",
"name": "estaciones_cable",
"crs": { "type": "name", "properties": { "name": "urn:ogc:def:crs:OGC:1.3:CRS84" } },
"features": [
{ "type": "Feature", "properties": { "objectid": 21, "cod_est": 40001, "num_est": 102, "nom_est": "Juan Pablo II", "eq_h_potab": 1, "eq_h_lluv": 1, "red_c_inc": 1, "eyec_negr": 0, "eyec_frea": 0, "ups": 1, "plant_elec": 1, "ascens": 2, "motorred": 0, "sist_vent": 0, "area_edif": 4041, "area_urb": 3680, "link_trans": "https://transmilenio.sharepoint.com/sites/TransMitiendo/TransMiCable/SitePages/Estación-Juan-Pablo-II-Equipos.aspx", "eta_oper": 1, "id_subtram": 101, "esta_oper": 1, "globalid": "{A51AE2C6-4284-4ABD-ACF6-45F278B8B0F7}" }, "geometry": { "type": "Point", "coordinates": [ -74.147422723625937, 4.55578761592027 ] } },
{ "type": "Feature", "properties": { "objectid": 22, "cod_est": 40002, "num_est": 103, "nom_est": "Manitas", "eq_h_potab": 1, "eq_h_lluv": 1, "red_c_inc": 1, "eyec_negr": 0, "eyec_frea": 0, "ups": 1, "plant_elec": 3, "ascens": 2, "motorred": 2, "sist_vent": 2, "area_edif": 2760, "area_urb": 2842, "link_trans": "https://transmilenio.sharepoint.com/sites/TransMitiendo/TransMiCable/SitePages/Estación-Manitas-Equipos.aspx", "eta_oper": 1, "id_subtram": 102, "esta_oper": 1, "globalid": "{6BFED222-AEBD-4AE7-B14F-DADE3352D0D6}" }, "geometry": { "type": "Point", "coordinates": [ -74.150516793299843, 4.550274973437432 ] } },
{ "type": "Feature", "properties": { "objectid": 23, "cod_est": 40003, "num_est": 104, "nom_est": "Mirador Del Paraiso", "eq_h_potab": 1, "eq_h_lluv": 1, "red_c_inc": 1, "eyec_negr": 0, "eyec_frea": 0, "ups": 1, "plant_elec": 1, "ascens": 2, "motorred": 0, "sist_vent": 0, "area_edif": 1298, "area_urb": 2657, "link_trans": "https://transmilenio.sharepoint.com/sites/TransMitiendo/TransMiCable/SitePages/Estación-Mirador-Del-Paraíso-Equipos.aspx", "eta_oper": 1, "id_subtram": 103, "esta_oper": 1, "globalid": "{5BDEEE71-59A9-4CB1-A57C-B54B51359A12}" }, "geometry": { "type": "Point", "coordinates": [ -74.158850556213551, 4.550099634459959 ] } },
{ "type": "Feature", "properties": { "objectid": 24, "cod_est": 40000, "num_est": 101, "nom_est": "Tunal", "eq_h_potab": 1, "eq_h_lluv": 1, "red_c_inc": 1, "eyec_negr": 2, "eyec_frea": 2, "ups": 1, "plant_elec": 1, "ascens": 0, "motorred": 0, "sist_vent": 0, "area_edif": 5969, "area_urb": 5962, "link_trans": "https://transmilenio.sharepoint.com/sites/TransMitiendo/TransMiCable/SitePages/Estación-Tunal-Equipos.aspx", "eta_oper": 1, "id_subtram": 101, "esta_oper": 1, "globalid": "{9C5EECC9-A3D8-4BB8-BBCB-203919BD164C}" }, "geometry": { "type": "Point", "coordinates": [ -74.139676779895495, 4.569193483848131 ] } }
]
}
